{"fetched_at":"2026-03-29T02:12:04Z","count":15717,"tles":[{"name":"STARLINK-34997","line1":"1 65418U 25192Q   26087.56350152  .00032737  00000+0  11124-2 0  9995","line2":"2 65418  53.1601 144.7039 0001319  79.3607 280.7542 15.30203468 32270","category":"Starlink"}]}